{"type": "FeatureCollection", "features": [{"type": "Feature", "properties": {"LotName": "Lot 5", "LotOwner": "", "LotType": "public off-street", "Quadrant": "D", "StudyRing": "Mid", "CurrentPar": 39, "Notes": "", "DisplayName": "Lot 5"}, "geometry": {"type": "Polygon", "coordinates": [[[-96.613525, 33.196684], [-96.613524, 33.196856], [-96.614158, 33.196868], [-96.614157, 33.196695], [-96.613525, 33.196684]]]}}, {"type": "Feature", "properties": {"LotName": "Lot 6", "LotOwner": "", "LotType": "public off-street", "Quadrant": "D", "StudyRing": "Outer", "CurrentPar": 32, "Notes": "Tree Occlusion", "DisplayName": "Lot 6"}, "geometry": {"type": "Polygon", "coordinates": [[[-96.612578, 33.196621], [-96.612579, 33.196898], [-96.612994, 33.196896], [-96.612992, 33.196619], [-96.612578, 33.196621]]]}}, {"type": "Feature", "properties": {"LotName": "Lot 4", "LotOwner": "", "LotType": "public off-street", "Quadrant": "C", "StudyRing": "Mid", "CurrentPar": 112, "Notes": "Southern Spots - 3 Deep Shadows", "DisplayName": "Lot 4"}, "geometry": {"type": "Polygon", "coordinates": [[[-96.616594, 33.196088], [-96.616595, 33.196001], [-96.616582, 33.196001], [-96.61633, 33.196004], [-96.616327, 33.196246], [-96.616326, 33.196328], [-96.615937, 33.196325], [-96.615937, 33.19633], [-96.615932, 33.196725], [-96.616576, 33.196731], [-96.616589, 33.196731], [-96.616594, 33.196088]]]}}, {"type": "Feature", "properties": {"LotName": "City Lot #2", "LotOwner": "City of McKinney", "LotType": "public off-street", "Quadrant": "A", "StudyRing": "Mid", "CurrentPar": 75, "Notes": "", "DisplayName": "City Lot #2"}, "geometry": {"type": "Polygon", "coordinates": [[[-96.617307, 33.197873], [-96.61731, 33.197321], [-96.61689, 33.197321], [-96.616888, 33.197321], [-96.616885, 33.197874], [-96.617307, 33.197873]]]}}, {"type": "Feature", "properties": {"LotName": "City Lot #3", "LotOwner": "City of McKinney", "LotType": "public off-street", "Quadrant": "A", "StudyRing": "Mid", "CurrentPar": 83, "Notes": "Tree Occlusion Western Spots, Southern Spots", "DisplayName": "City Lot #3"}, "geometry": {"type": "Polygon", "coordinates": [[[-96.615932, 33.198677], [-96.615934, 33.199158], [-96.616344, 33.199157], [-96.616342, 33.198809], [-96.61635, 33.198809], [-96.616547, 33.198809], [-96.616547, 33.198675], [-96.615932, 33.198677]]]}}, {"type": "Feature", "properties": {"LotName": "Lot 1 North", "LotOwner": "", "LotType": "public off-street", "Quadrant": "B", "StudyRing": "Outer", "CurrentPar": 124, "Notes": "", "DisplayName": "Lot 1 North"}, "geometry": {"type": "Polygon", "coordinates": [[[-96.614878, 33.199761], [-96.614298, 33.199758], [-96.614292, 33.200434], [-96.614876, 33.200438], [-96.614882, 33.200438], [-96.614888, 33.199761], [-96.614878, 33.199761]]]}}, {"type": "Feature", "properties": {"LotName": "Hall Library Lot", "LotOwner": "City of McKinney", "LotType": "public off-street", "Quadrant": "A", "StudyRing": "Outer", "CurrentPar": 65, "Notes": "Tree Occlusion Mid-Spots", "DisplayName": "Hall Library Lot"}, "geometry": {"type": "Polygon", "coordinates": [[[-96.615158, 33.19992], [-96.615157, 33.199991], [-96.615126, 33.19999], [-96.615121, 33.200232], [-96.615236, 33.200232], [-96.615234, 33.200335], [-96.615419, 33.200338], [-96.615418, 33.20047], [-96.61574, 33.200468], [-96.615739, 33.199924], [-96.615158, 33.19992]]]}}, {"type": "Feature", "properties": {"LotName": "Municipal Court Lots", "LotOwner": "City of McKinney", "LotType": "public off-street", "Quadrant": "D", "StudyRing": "Mid", "CurrentPar": 10, "Notes": "Tree Occlusion Northern Dumpster Spot", "DisplayName": "Municipal Court Lots"}, "geometry": {"type": "Polygon", "coordinates": [[[-96.61416, 33.196577], [-96.614139, 33.196047], [-96.614089, 33.196045], [-96.614068, 33.19648], [-96.613791, 33.196517], [-96.613795, 33.196568], [-96.614076, 33.196575], [-96.61416, 33.196577]]]}}, {"type": "Feature", "properties": {"LotName": "Davis at the Square", "LotOwner": "", "LotType": "parking garage", "Quadrant": "D", "StudyRing": "Outer", "CurrentPar": 98, "Notes": "Parking Structure", "DisplayName": "Davis at the Square"}, "geometry": {"type": "Polygon", "coordinates": [[[-96.613951, 33.194935], [-96.613955, 33.195679], [-96.614369, 33.195677], [-96.614367, 33.195287], [-96.614365, 33.194933], [-96.613951, 33.194935]]]}}, {"type": "Feature", "properties": {"LotName": "City Lot #1", "LotOwner": "City of McKinney", "LotType": "public off-street", "Quadrant": "B", "StudyRing": "Outer", "CurrentPar": 103, "Notes": "", "DisplayName": "City Lot #1"}, "geometry": {"type": "Polygon", "coordinates": [[[-96.614158, 33.19931], [-96.613511, 33.199305], [-96.613506, 33.199842], [-96.614154, 33.199846], [-96.614158, 33.19931]]]}}, {"type": "Feature", "properties": {"LotName": "Water Tower Lot", "LotOwner": "City of McKinney", "LotType": "public off-street", "Quadrant": "D", "StudyRing": "Outer", "CurrentPar": 21, "Notes": "Tree Occlusion", "DisplayName": "Water Tower Lot"}, "geometry": {"type": "Polygon", "coordinates": [[[-96.61261, 33.196511], [-96.613098, 33.196509], [-96.613098, 33.196434], [-96.613127, 33.196434], [-96.613126, 33.196252], [-96.613003, 33.196253], [-96.613004, 33.196387], [-96.612743, 33.196388], [-96.612742, 33.196033], [-96.612717, 33.196033], [-96.612697, 33.196034], [-96.612612, 33.196034], [-96.612609, 33.196213], [-96.61261, 33.196511]]]}}, {"type": "Feature", "properties": {"LotName": "Playful Corp.", "LotOwner": "", "LotType": "public off-street", "Quadrant": "D", "StudyRing": "Outer", "CurrentPar": 125, "Notes": "", "DisplayName": "Playful Corp."}, "geometry": {"type": "Polygon", "coordinates": [[[-96.612699, 33.194807], [-96.612702, 33.195357], [-96.613313, 33.195355], [-96.61331, 33.194674], [-96.612809, 33.194676], [-96.61281, 33.194807], [-96.612699, 33.194807]]]}}, {"type": "Feature", "properties": {"LotName": "Lot H - North", "LotOwner": "", "LotType": "public off-street", "Quadrant": "A", "StudyRing": "Outer", "CurrentPar": 43, "Notes": "Tree Occlusion Southern Row", "DisplayName": "Lot H - North"}, "geometry": {"type": "Polygon", "coordinates": [[[-96.615938, 33.200287], [-96.615938, 33.200463], [-96.616592, 33.200465], [-96.616592, 33.200288], [-96.615938, 33.200287]]]}}, {"type": "Feature", "properties": {"LotName": "Chestnut Garage", "LotOwner": "City of McKinney", "LotType": "parking garage", "Quadrant": "B", "StudyRing": "Outer", "CurrentPar": 312, "Notes": "Parking Structure", "DisplayName": "Chestnut Garage"}, "geometry": {"type": "Polygon", "coordinates": [[[-96.612582, 33.19829], [-96.612579, 33.198592], [-96.613392, 33.198597], [-96.613394, 33.198295], [-96.612582, 33.19829]]]}}, {"type": "Feature", "properties": {"LotName": "Lot H - South", "LotOwner": "", "LotType": "public off-street", "Quadrant": "A", "StudyRing": "Outer", "CurrentPar": 40, "Notes": "", "DisplayName": "Lot H - South"}, "geometry": {"type": "Polygon", "coordinates": [[[-96.615952, 33.199954], [-96.615952, 33.200124], [-96.616561, 33.200125], [-96.616562, 33.199961], [-96.616562, 33.199955], [-96.615952, 33.199954]]]}}, {"type": "Feature", "properties": {"LotName": "Wysong - Lot C North", "LotOwner": "", "LotType": "public off-street", "Quadrant": "B", "StudyRing": "Outer", "CurrentPar": 19, "Notes": "", "DisplayName": "Wysong - Lot C North"}, "geometry": {"type": "Polygon", "coordinates": [[[-96.612956, 33.199719], [-96.612957, 33.199871], [-96.613156, 33.199873], [-96.613369, 33.199874], [-96.61337, 33.199721], [-96.612956, 33.199719]]]}}, {"type": "Feature", "properties": {"LotName": "Wysong - Lot C South", "LotOwner": "", "LotType": "public off-street", "Quadrant": "B", "StudyRing": "Outer", "CurrentPar": 9, "Notes": "Temporary Construction Site", "DisplayName": "Wysong - Lot C South"}, "geometry": {"type": "Polygon", "coordinates": [[[-96.612954, 33.199361], [-96.612956, 33.199639], [-96.613395, 33.199642], [-96.613397, 33.199364], [-96.612954, 33.199361]]]}}, {"type": "Feature", "properties": {"LotName": "Lot 1 South", "LotOwner": "City of McKinney", "LotType": "public off-street", "Quadrant": "B", "StudyRing": "Outer", "CurrentPar": 48, "Notes": "Tree Occlusion Periphery", "DisplayName": "Lot 1 South"}, "geometry": {"type": "Polygon", "coordinates": [[[-96.614284, 33.199326], [-96.614282, 33.199535], [-96.614886, 33.199539], [-96.614888, 33.199329], [-96.614284, 33.199326]]]}}, {"type": "Feature", "properties": {"LotName": "", "LotOwner": "", "LotType": "on-street", "Quadrant": "A", "StudyRing": "Inner", "CurrentPar": 11, "Notes": "", "DisplayName": "On-street \u2014 Zone A \u00b7 Inner \u00b7 seg 1"}, "geometry": {"type": "Polygon", "coordinates": [[[-96.615162, 33.197454], [-96.615102, 33.197423], [-96.615107, 33.197781], [-96.615165, 33.197805], [-96.615162, 33.197454]]]}}, {"type": "Feature", "properties": {"LotName": "", "LotOwner": "", "LotType": "on-street", "Quadrant": "A", "StudyRing": "Inner", "CurrentPar": 11, "Notes": "", "DisplayName": "On-street \u2014 Zone A \u00b7 Inner \u00b7 seg 2"}, "geometry": {"type": "Polygon", "coordinates": [[[-96.615249, 33.197818], [-96.615214, 33.197865], [-96.615619, 33.197868], [-96.615638, 33.19782], [-96.615249, 33.197818]]]}}, {"type": "Feature", "properties": {"LotName": "", "LotOwner": "", "LotType": "on-street", "Quadrant": "A", "StudyRing": "Inner", "CurrentPar": 12, "Notes": "", "DisplayName": "On-street \u2014 Zone A \u00b7 Inner \u00b7 seg 3"}, "geometry": {"type": "Polygon", "coordinates": [[[-96.615717, 33.197788], [-96.615719, 33.197423], [-96.615662, 33.197397], [-96.615661, 33.197764], [-96.615717, 33.197788]]]}}, {"type": "Feature", "properties": {"LotName": "", "LotOwner": "", "LotType": "on-street", "Quadrant": "A", "StudyRing": "Inner", "CurrentPar": 11, "Notes": "", "DisplayName": "On-street \u2014 Zone A \u00b7 Inner \u00b7 seg 4"}, "geometry": {"type": "Polygon", "coordinates": [[[-96.61558, 33.197383], [-96.615611, 33.197334], [-96.615209, 33.197335], [-96.615188, 33.197382], [-96.61558, 33.197383]]]}}, {"type": "Feature", "properties": {"LotName": "", "LotOwner": "", "LotType": "on-street", "Quadrant": "A", "StudyRing": "Inner", "CurrentPar": 6, "Notes": "", "DisplayName": "On-street \u2014 Zone A \u00b7 Inner \u00b7 seg 5"}, "geometry": {"type": "Polygon", "coordinates": [[[-96.615803, 33.197423], [-96.615803, 33.197855], [-96.615837, 33.197854], [-96.615835, 33.197422], [-96.615803, 33.197423]]]}}, {"type": "Feature", "properties": {"LotName": "", "LotOwner": "", "LotType": "on-street", "Quadrant": "A", "StudyRing": "Inner", "CurrentPar": 7, "Notes": "", "DisplayName": "On-street \u2014 Zone A \u00b7 Inner \u00b7 seg 6"}, "geometry": {"type": "Polygon", "coordinates": [[[-96.615971, 33.197927], [-96.616466, 33.197926], [-96.616465, 33.197897], [-96.615973, 33.1979], [-96.615971, 33.197927]]]}}, {"type": "Feature", "properties": {"LotName": "", "LotOwner": "", "LotType": "on-street", "Quadrant": "A", "StudyRing": "Inner", "CurrentPar": 8, "Notes": "", "DisplayName": "On-street \u2014 Zone A \u00b7 Inner \u00b7 seg 7"}, "geometry": {"type": "Polygon", "coordinates": [[[-96.61608, 33.197271], [-96.615999, 33.197271], [-96.615999, 33.197299], [-96.616364, 33.197296], [-96.616364, 33.197269], [-96.61608, 33.197271]]]}}, {"type": "Feature", "properties": {"LotName": "Louisiana 19-S", "LotOwner": "", "LotType": "on-street", "Quadrant": "A", "StudyRing": "Mid", "CurrentPar": 4, "Notes": "", "DisplayName": "Louisiana 19-S"}, "geometry": {"type": "MultiPolygon", "coordinates": [[[[-96.616725, 33.197267], [-96.616725, 33.197295], [-96.616951, 33.197295], [-96.616951, 33.197282], [-96.616952, 33.197267], [-96.616725, 33.197267]]], [[[-96.617033, 33.197264], [-96.617032, 33.197291], [-96.617105, 33.197293], [-96.617105, 33.197265], [-96.617033, 33.197264]]]]}}, {"type": "Feature", "properties": {"LotName": "", "LotOwner": "", "LotType": "on-street", "Quadrant": "A", "StudyRing": "Outer", "CurrentPar": 6, "Notes": "", "DisplayName": "On-street \u2014 Zone A \u00b7 Outer \u00b7 seg 1"}, "geometry": {"type": "Polygon", "coordinates": [[[-96.617617, 33.197262], [-96.617617, 33.197264], [-96.617617, 33.197289], [-96.618034, 33.197294], [-96.618034, 33.197266], [-96.617617, 33.197262]]]}}, {"type": "Feature", "properties": {"LotName": "", "LotOwner": "", "LotType": "on-street", "Quadrant": "A", "StudyRing": "Outer", "CurrentPar": 6, "Notes": "", "DisplayName": "On-street \u2014 Zone A \u00b7 Outer \u00b7 seg 2"}, "geometry": {"type": "Polygon", "coordinates": [[[-96.618382, 33.197966], [-96.618381, 33.197993], [-96.618773, 33.19799], [-96.618773, 33.197962], [-96.618382, 33.197966]]]}}, {"type": "Feature", "properties": {"LotName": "", "LotOwner": "", "LotType": "on-street", "Quadrant": "A", "StudyRing": "Mid", "CurrentPar": 7, "Notes": "", "DisplayName": "On-street \u2014 Zone A \u00b7 Mid \u00b7 seg 1"}, "geometry": {"type": "Polygon", "coordinates": [[[-96.616723, 33.197982], [-96.616723, 33.19801], [-96.617219, 33.198002], [-96.617221, 33.198002], [-96.617221, 33.197974], [-96.616723, 33.197982]]]}}, {"type": "Feature", "properties": {"LotName": "", "LotOwner": "", "LotType": "on-street", "Quadrant": "A", "StudyRing": "Mid", "CurrentPar": 9, "Notes": "Building Occlusion Southern Spots", "DisplayName": "On-street \u2014 Zone A \u00b7 Mid \u00b7 seg 2"}, "geometry": {"type": "Polygon", "coordinates": [[[-96.616658, 33.19809], [-96.616652, 33.198554], [-96.616685, 33.198554], [-96.616691, 33.198099], [-96.616691, 33.19809], [-96.616658, 33.19809]]]}}, {"type": "Feature", "properties": {"LotName": "", "LotOwner": "", "LotType": "on-street", "Quadrant": "A", "StudyRing": "Inner", "CurrentPar": 7, "Notes": "", "DisplayName": "On-street \u2014 Zone A \u00b7 Inner \u00b7 seg 8"}, "geometry": {"type": "Polygon", "coordinates": [[[-96.615871, 33.198069], [-96.615872, 33.198496], [-96.615904, 33.198496], [-96.615903, 33.198069], [-96.615871, 33.198069]]]}}, {"type": "Feature", "properties": {"LotName": "", "LotOwner": "", "LotType": "on-street", "Quadrant": "A", "StudyRing": "Inner", "CurrentPar": 8, "Notes": "", "DisplayName": "On-street \u2014 Zone A \u00b7 Inner \u00b7 seg 9"}, "geometry": {"type": "Polygon", "coordinates": [[[-96.615968, 33.197986], [-96.615969, 33.198016], [-96.616541, 33.198012], [-96.61654, 33.197987], [-96.615968, 33.197986]]]}}, {"type": "Feature", "properties": {"LotName": "", "LotOwner": "", "LotType": "on-street", "Quadrant": "A", "StudyRing": "Inner", "CurrentPar": 13, "Notes": "", "DisplayName": "On-street \u2014 Zone A \u00b7 Inner \u00b7 seg 10"}, "geometry": {"type": "Polygon", "coordinates": [[[-96.615197, 33.197994], [-96.615638, 33.197992], [-96.615622, 33.197939], [-96.615162, 33.197939], [-96.615197, 33.197994]]]}}, {"type": "Feature", "properties": {"LotName": "", "LotOwner": "", "LotType": "on-street", "Quadrant": "A", "StudyRing": "Inner", "CurrentPar": 7, "Notes": "", "DisplayName": "On-street \u2014 Zone A \u00b7 Inner \u00b7 seg 11"}, "geometry": {"type": "Polygon", "coordinates": [[[-96.615776, 33.198069], [-96.615778, 33.198496], [-96.61581, 33.198496], [-96.615808, 33.198068], [-96.615776, 33.198069]]]}}, {"type": "Feature", "properties": {"LotName": "", "LotOwner": "", "LotType": "on-street", "Quadrant": "A", "StudyRing": "Inner", "CurrentPar": 5, "Notes": "", "DisplayName": "On-street \u2014 Zone A \u00b7 Inner \u00b7 seg 12"}, "geometry": {"type": "Polygon", "coordinates": [[[-96.61503, 33.198351], [-96.615053, 33.198351], [-96.615053, 33.19806], [-96.61502, 33.198059], [-96.61502, 33.198351], [-96.61503, 33.198351], [-96.61503, 33.198351]]]}}, {"type": "Feature", "properties": {"LotName": "", "LotOwner": "", "LotType": "on-street", "Quadrant": "A", "StudyRing": "Mid", "CurrentPar": 7, "Notes": "", "DisplayName": "On-street \u2014 Zone A \u00b7 Mid \u00b7 seg 3"}, "geometry": {"type": "Polygon", "coordinates": [[[-96.615867, 33.199152], [-96.6159, 33.199152], [-96.615902, 33.198712], [-96.615872, 33.198711], [-96.615872, 33.198712], [-96.61587, 33.198712], [-96.615867, 33.199152]]]}}, {"type": "Feature", "properties": {"LotName": "", "LotOwner": "", "LotType": "on-street", "Quadrant": "A", "StudyRing": "Outer", "CurrentPar": 4, "Notes": "", "DisplayName": "On-street \u2014 Zone A \u00b7 Outer \u00b7 seg 3"}, "geometry": {"type": "Polygon", "coordinates": [[[-96.617385, 33.198283], [-96.617386, 33.198574], [-96.617389, 33.198574], [-96.617418, 33.198573], [-96.617418, 33.198282], [-96.617385, 33.198283]]]}}, {"type": "Feature", "properties": {"LotName": "", "LotOwner": "", "LotType": "on-street", "Quadrant": "A", "StudyRing": "Outer", "CurrentPar": 10, "Notes": "", "DisplayName": "On-street \u2014 Zone A \u00b7 Outer \u00b7 seg 4"}, "geometry": {"type": "Polygon", "coordinates": [[[-96.618113, 33.199532], [-96.618088, 33.199545], [-96.618087, 33.19958], [-96.618077, 33.199858], [-96.61811, 33.19986], [-96.618121, 33.199546], [-96.618121, 33.199527], [-96.618113, 33.199532]]]}}, {"type": "Feature", "properties": {"LotName": "", "LotOwner": "", "LotType": "on-street", "Quadrant": "A", "StudyRing": "Outer", "CurrentPar": 7, "Notes": "", "DisplayName": "On-street \u2014 Zone A \u00b7 Outer \u00b7 seg 5"}, "geometry": {"type": "Polygon", "coordinates": [[[-96.615902, 33.199385], [-96.61587, 33.199385], [-96.615868, 33.199813], [-96.6159, 33.199813], [-96.615902, 33.199385]]]}}, {"type": "Feature", "properties": {"LotName": "", "LotOwner": "", "LotType": "on-street", "Quadrant": "A", "StudyRing": "Outer", "CurrentPar": 13, "Notes": "", "DisplayName": "On-street \u2014 Zone A \u00b7 Outer \u00b7 seg 6"}, "geometry": {"type": "Polygon", "coordinates": [[[-96.615011, 33.199361], [-96.615011, 33.200214], [-96.615019, 33.200214], [-96.615043, 33.200214], [-96.615044, 33.199362], [-96.615011, 33.199361]]]}}, {"type": "Feature", "properties": {"LotName": "", "LotOwner": "", "LotType": "on-street", "Quadrant": "A", "StudyRing": "Outer", "CurrentPar": 4, "Notes": "", "DisplayName": "On-street \u2014 Zone A \u00b7 Outer \u00b7 seg 7"}, "geometry": {"type": "Polygon", "coordinates": [[[-96.615783, 33.199715], [-96.615815, 33.199715], [-96.615812, 33.199383], [-96.61581, 33.199383], [-96.61581, 33.199382], [-96.615779, 33.199383], [-96.615783, 33.199715]]]}}, {"type": "Feature", "properties": {"LotName": "", "LotOwner": "", "LotType": "on-street", "Quadrant": "A", "StudyRing": "Outer", "CurrentPar": 3, "Notes": "", "DisplayName": "On-street \u2014 Zone A \u00b7 Outer \u00b7 seg 8"}, "geometry": {"type": "Polygon", "coordinates": [[[-96.615903, 33.200106], [-96.61587, 33.200106], [-96.61587, 33.200287], [-96.615903, 33.200287], [-96.615903, 33.200106]]]}}, {"type": "Feature", "properties": {"LotName": "", "LotOwner": "", "LotType": "on-street", "Quadrant": "B", "StudyRing": "Inner", "CurrentPar": 13, "Notes": "", "DisplayName": "On-street \u2014 Zone B \u00b7 Inner \u00b7 seg 1"}, "geometry": {"type": "Polygon", "coordinates": [[[-96.614959, 33.197819], [-96.61502, 33.197792], [-96.615018, 33.197395], [-96.614961, 33.197417], [-96.614959, 33.197819]]]}}, {"type": "Feature", "properties": {"LotName": "", "LotOwner": "", "LotType": "on-street", "Quadrant": "B", "StudyRing": "Inner", "CurrentPar": 6, "Notes": "", "DisplayName": "On-street \u2014 Zone B \u00b7 Inner \u00b7 seg 2"}, "geometry": {"type": "Polygon", "coordinates": [[[-96.614329, 33.19728], [-96.614328, 33.197307], [-96.614754, 33.197306], [-96.614754, 33.197278], [-96.614329, 33.19728]]]}}, {"type": "Feature", "properties": {"LotName": "", "LotOwner": "", "LotType": "on-street", "Quadrant": "B", "StudyRing": "Inner", "CurrentPar": 6, "Notes": "", "DisplayName": "On-street \u2014 Zone B \u00b7 Inner \u00b7 seg 3"}, "geometry": {"type": "Polygon", "coordinates": [[[-96.614426, 33.197943], [-96.614859, 33.197941], [-96.61486, 33.197914], [-96.614426, 33.197916], [-96.614425, 33.197938], [-96.614426, 33.197938], [-96.614426, 33.197943]]]}}, {"type": "Feature", "properties": {"LotName": "", "LotOwner": "", "LotType": "on-street", "Quadrant": "B", "StudyRing": "Mid", "CurrentPar": 3, "Notes": "", "DisplayName": "On-street \u2014 Zone B \u00b7 Mid \u00b7 seg 1"}, "geometry": {"type": "Polygon", "coordinates": [[[-96.613863, 33.197942], [-96.614079, 33.197942], [-96.614079, 33.197941], [-96.61408, 33.197941], [-96.614079, 33.197915], [-96.613863, 33.197914], [-96.613863, 33.19794], [-96.613863, 33.19794], [-96.613863, 33.197942]]]}}, {"type": "Feature", "properties": {"LotName": "", "LotOwner": "", "LotType": "on-street", "Quadrant": "B", "StudyRing": "Mid", "CurrentPar": 7, "Notes": "", "DisplayName": "On-street \u2014 Zone B \u00b7 Mid \u00b7 seg 2"}, "geometry": {"type": "Polygon", "coordinates": [[[-96.613597, 33.197276], [-96.613597, 33.197304], [-96.614096, 33.197308], [-96.614097, 33.197283], [-96.614096, 33.197283], [-96.614096, 33.19728], [-96.613597, 33.197276]]]}}, {"type": "Feature", "properties": {"LotName": "", "LotOwner": "", "LotType": "on-street", "Quadrant": "B", "StudyRing": "Outer", "CurrentPar": 8, "Notes": "Tree Occlusion Easternmost Spot", "DisplayName": "On-street \u2014 Zone B \u00b7 Outer \u00b7 seg 1"}, "geometry": {"type": "Polygon", "coordinates": [[[-96.612613, 33.197273], [-96.612613, 33.1973], [-96.613306, 33.197304], [-96.613307, 33.197276], [-96.612613, 33.197273]]]}}, {"type": "Feature", "properties": {"LotName": "", "LotOwner": "", "LotType": "on-street", "Quadrant": "B", "StudyRing": "Outer", "CurrentPar": 8, "Notes": "", "DisplayName": "On-street \u2014 Zone B \u00b7 Outer \u00b7 seg 2"}, "geometry": {"type": "MultiPolygon", "coordinates": [[[[-96.612697, 33.197941], [-96.613025, 33.197942], [-96.613026, 33.197914], [-96.612698, 33.197913], [-96.612697, 33.197941]]], [[[-96.613098, 33.197914], [-96.613097, 33.197942], [-96.613311, 33.197942], [-96.613312, 33.197915], [-96.613098, 33.197914]]]]}}, {"type": "Feature", "properties": {"LotName": "", "LotOwner": "", "LotType": "on-street", "Quadrant": "B", "StudyRing": "Outer", "CurrentPar": 7, "Notes": "", "DisplayName": "On-street \u2014 Zone B \u00b7 Outer \u00b7 seg 3"}, "geometry": {"type": "MultiPolygon", "coordinates": [[[[-96.612607, 33.197991], [-96.612607, 33.198017], [-96.6129, 33.198018], [-96.612901, 33.197994], [-96.6129, 33.197994], [-96.6129, 33.197991], [-96.612607, 33.197991]]], [[[-96.613083, 33.198019], [-96.613312, 33.198019], [-96.613313, 33.197992], [-96.613084, 33.197991], [-96.613083, 33.198019]]]]}}, {"type": "Feature", "properties": {"LotName": "", "LotOwner": "", "LotType": "on-street", "Quadrant": "B", "StudyRing": "Mid", "CurrentPar": 4, "Notes": "", "DisplayName": "On-street \u2014 Zone B \u00b7 Mid \u00b7 seg 3"}, "geometry": {"type": "MultiPolygon", "coordinates": [[[[-96.613609, 33.19799], [-96.613609, 33.197996], [-96.613607, 33.197996], [-96.613609, 33.198018], [-96.613836, 33.19802], [-96.613836, 33.197992], [-96.613609, 33.19799]]], [[[-96.614022, 33.198001], [-96.614021, 33.198001], [-96.614022, 33.198021], [-96.614097, 33.198022], [-96.614098, 33.198002], [-96.614097, 33.198002], [-96.614098, 33.197994], [-96.614022, 33.197994], [-96.614022, 33.198001]]]]}}, {"type": "Feature", "properties": {"LotName": "", "LotOwner": "", "LotType": "on-street", "Quadrant": "B", "StudyRing": "Inner", "CurrentPar": 6, "Notes": "", "DisplayName": "On-street \u2014 Zone B \u00b7 Inner \u00b7 seg 4"}, "geometry": {"type": "Polygon", "coordinates": [[[-96.614432, 33.197991], [-96.614431, 33.198018], [-96.614861, 33.19802], [-96.614861, 33.197996], [-96.614861, 33.197996], [-96.614861, 33.197992], [-96.614432, 33.197991]]]}}, {"type": "Feature", "properties": {"LotName": "", "LotOwner": "", "LotType": "on-street", "Quadrant": "B", "StudyRing": "Inner", "CurrentPar": 8, "Notes": "", "DisplayName": "On-street \u2014 Zone B \u00b7 Inner \u00b7 seg 5"}, "geometry": {"type": "Polygon", "coordinates": [[[-96.614926, 33.198066], [-96.614924, 33.198513], [-96.614946, 33.198514], [-96.614946, 33.198513], [-96.614957, 33.198513], [-96.614959, 33.198066], [-96.614926, 33.198066]]]}}, {"type": "Feature", "properties": {"LotName": "", "LotOwner": "", "LotType": "on-street", "Quadrant": "B", "StudyRing": "Outer", "CurrentPar": 3, "Notes": "", "DisplayName": "On-street \u2014 Zone B \u00b7 Outer \u00b7 seg 4"}, "geometry": {"type": "Polygon", "coordinates": [[[-96.614958, 33.199366], [-96.614926, 33.199366], [-96.614927, 33.19954], [-96.61495, 33.19954], [-96.61496, 33.19954], [-96.614958, 33.199366]]]}}, {"type": "Feature", "properties": {"LotName": "", "LotOwner": "", "LotType": "on-street", "Quadrant": "B", "StudyRing": "Outer", "CurrentPar": 7, "Notes": "", "DisplayName": "On-street \u2014 Zone B \u00b7 Outer \u00b7 seg 5"}, "geometry": {"type": "MultiPolygon", "coordinates": [[[[-96.614926, 33.199659], [-96.614926, 33.199964], [-96.614961, 33.199965], [-96.614959, 33.19966], [-96.614926, 33.199659]]], [[[-96.61493, 33.200087], [-96.614928, 33.200197], [-96.614927, 33.200213], [-96.61496, 33.200213], [-96.614963, 33.200087], [-96.61493, 33.200087]]]]}}, {"type": "Feature", "properties": {"LotName": "", "LotOwner": "", "LotType": "on-street", "Quadrant": "C", "StudyRing": "Inner", "CurrentPar": 13, "Notes": "", "DisplayName": "On-street \u2014 Zone C \u00b7 Inner \u00b7 seg 1"}, "geometry": {"type": "Polygon", "coordinates": [[[-96.615653, 33.197256], [-96.615612, 33.197201], [-96.61514, 33.197203], [-96.615185, 33.197256], [-96.615653, 33.197256]]]}}, {"type": "Feature", "properties": {"LotName": "", "LotOwner": "", "LotType": "on-street", "Quadrant": "C", "StudyRing": "Inner", "CurrentPar": 6, "Notes": "", "DisplayName": "On-street \u2014 Zone C \u00b7 Inner \u00b7 seg 2"}, "geometry": {"type": "Polygon", "coordinates": [[[-96.6158, 33.196742], [-96.615772, 33.196742], [-96.615778, 33.197104], [-96.615779, 33.197111], [-96.615811, 33.19711], [-96.615804, 33.196742], [-96.6158, 33.196742]]]}}, {"type": "Feature", "properties": {"LotName": "", "LotOwner": "", "LotType": "on-street", "Quadrant": "C", "StudyRing": "Inner", "CurrentPar": 7, "Notes": "", "DisplayName": "On-street \u2014 Zone C \u00b7 Inner \u00b7 seg 3"}, "geometry": {"type": "Polygon", "coordinates": [[[-96.615065, 33.197121], [-96.615063, 33.196662], [-96.615029, 33.196661], [-96.615032, 33.197121], [-96.615065, 33.197121]]]}}, {"type": "Feature", "properties": {"LotName": "", "LotOwner": "", "LotType": "on-street", "Quadrant": "C", "StudyRing": "Inner", "CurrentPar": 7, "Notes": "Tree Occlusion Eastern Spot", "DisplayName": "On-street \u2014 Zone C \u00b7 Inner \u00b7 seg 4"}, "geometry": {"type": "Polygon", "coordinates": [[[-96.61602, 33.197186], [-96.61602, 33.197194], [-96.616019, 33.197204], [-96.616019, 33.197213], [-96.616493, 33.197209], [-96.616494, 33.197181], [-96.61602, 33.197186]]]}}, {"type": "Feature", "properties": {"LotName": "", "LotOwner": "", "LotType": "on-street", "Quadrant": "C", "StudyRing": "Inner", "CurrentPar": 6, "Notes": "", "DisplayName": "On-street \u2014 Zone C \u00b7 Inner \u00b7 seg 5"}, "geometry": {"type": "Polygon", "coordinates": [[[-96.615871, 33.196744], [-96.615872, 33.197106], [-96.615905, 33.197106], [-96.615905, 33.197102], [-96.615904, 33.196748], [-96.615904, 33.196744], [-96.615871, 33.196744]]]}}, {"type": "Feature", "properties": {"LotName": "", "LotOwner": "", "LotType": "on-street", "Quadrant": "C", "StudyRing": "Mid", "CurrentPar": 4, "Notes": "", "DisplayName": "On-street \u2014 Zone C \u00b7 Mid \u00b7 seg 1"}, "geometry": {"type": "MultiPolygon", "coordinates": [[[[-96.616989, 33.197179], [-96.616988, 33.197207], [-96.617205, 33.197206], [-96.617205, 33.197178], [-96.616989, 33.197179]]], [[[-96.616713, 33.197181], [-96.616712, 33.197208], [-96.616799, 33.197208], [-96.616798, 33.197181], [-96.616713, 33.197181]]]]}}, {"type": "Feature", "properties": {"LotName": "", "LotOwner": "", "LotType": "on-street", "Quadrant": "C", "StudyRing": "Outer", "CurrentPar": 5, "Notes": "", "DisplayName": "On-street \u2014 Zone C \u00b7 Outer \u00b7 seg 1"}, "geometry": {"type": "Polygon", "coordinates": [[[-96.617622, 33.197169], [-96.617622, 33.197196], [-96.617838, 33.197198], [-96.617838, 33.19717], [-96.617622, 33.197169]]]}}, {"type": "Feature", "properties": {"LotName": "", "LotOwner": "", "LotType": "on-street", "Quadrant": "C", "StudyRing": "Outer", "CurrentPar": 5, "Notes": "", "DisplayName": "On-street \u2014 Zone C \u00b7 Outer \u00b7 seg 2"}, "geometry": {"type": "MultiPolygon", "coordinates": [[[[-96.617392, 33.196923], [-96.617391, 33.197137], [-96.617424, 33.197138], [-96.617424, 33.196923], [-96.617392, 33.196923]]], [[[-96.617394, 33.196608], [-96.617393, 33.196718], [-96.617405, 33.196719], [-96.617425, 33.196719], [-96.617427, 33.196608], [-96.617406, 33.196608], [-96.617397, 33.196608], [-96.617394, 33.196608]]]]}}, {"type": "Feature", "properties": {"LotName": "", "LotOwner": "", "LotType": "on-street", "Quadrant": "C", "StudyRing": "Outer", "CurrentPar": 8, "Notes": "", "DisplayName": "On-street \u2014 Zone C \u00b7 Outer \u00b7 seg 3"}, "geometry": {"type": "Polygon", "coordinates": [[[-96.617401, 33.196], [-96.617398, 33.196], [-96.617395, 33.196517], [-96.617397, 33.196517], [-96.617427, 33.196518], [-96.617431, 33.196], [-96.617401, 33.196]]]}}, {"type": "Feature", "properties": {"LotName": "", "LotOwner": "", "LotType": "on-street", "Quadrant": "C", "StudyRing": "Mid", "CurrentPar": 6, "Notes": "", "DisplayName": "On-street \u2014 Zone C \u00b7 Mid \u00b7 seg 2"}, "geometry": {"type": "Polygon", "coordinates": [[[-96.61581, 33.196126], [-96.615801, 33.196189], [-96.615794, 33.196248], [-96.61579, 33.196275], [-96.615785, 33.196308], [-96.615778, 33.196371], [-96.615778, 33.196488], [-96.615778, 33.196507], [-96.615811, 33.196506], [-96.615811, 33.196487], [-96.615809, 33.19636], [-96.615822, 33.196279], [-96.615843, 33.196126], [-96.61581, 33.196126]]]}}, {"type": "Feature", "properties": {"LotName": "", "LotOwner": "", "LotType": "on-street", "Quadrant": "C", "StudyRing": "Mid", "CurrentPar": 3, "Notes": "", "DisplayName": "On-street \u2014 Zone C \u00b7 Mid \u00b7 seg 3"}, "geometry": {"type": "MultiPolygon", "coordinates": [[[[-96.615028, 33.196072], [-96.615028, 33.196072], [-96.615022, 33.196072], [-96.615022, 33.196194], [-96.615055, 33.196194], [-96.615055, 33.196072], [-96.615028, 33.196072]]], [[[-96.615022, 33.196346], [-96.615023, 33.196402], [-96.615032, 33.196402], [-96.615056, 33.196402], [-96.615055, 33.196346], [-96.615022, 33.196346]]]]}}, {"type": "Feature", "properties": {"LotName": "", "LotOwner": "", "LotType": "on-street", "Quadrant": "C", "StudyRing": "Outer", "CurrentPar": 6, "Notes": "", "DisplayName": "On-street \u2014 Zone C \u00b7 Outer \u00b7 seg 4"}, "geometry": {"type": "Polygon", "coordinates": [[[-96.615769, 33.195361], [-96.615768, 33.195811], [-96.6158, 33.195811], [-96.615802, 33.195361], [-96.615769, 33.195361]]]}}, {"type": "Feature", "properties": {"LotName": "", "LotOwner": "", "LotType": "on-street", "Quadrant": "C", "StudyRing": "Outer", "CurrentPar": 8, "Notes": "", "DisplayName": "On-street \u2014 Zone C \u00b7 Outer \u00b7 seg 5"}, "geometry": {"type": "Polygon", "coordinates": [[[-96.616678, 33.195931], [-96.616678, 33.195938], [-96.617308, 33.195935], [-96.617308, 33.195908], [-96.616678, 33.195911], [-96.616678, 33.195931]]]}}, {"type": "Feature", "properties": {"LotName": "", "LotOwner": "", "LotType": "on-street", "Quadrant": "C", "StudyRing": "Outer", "CurrentPar": 8, "Notes": "", "DisplayName": "On-street \u2014 Zone C \u00b7 Outer \u00b7 seg 6"}, "geometry": {"type": "Polygon", "coordinates": [[[-96.617492, 33.195896], [-96.617491, 33.195921], [-96.617491, 33.195923], [-96.61806, 33.195916], [-96.61806, 33.195906], [-96.61806, 33.195906], [-96.61806, 33.195891], [-96.61806, 33.195891], [-96.61806, 33.195889], [-96.617492, 33.195896]]]}}, {"type": "Feature", "properties": {"LotName": "", "LotOwner": "", "LotType": "on-street", "Quadrant": "C", "StudyRing": "Outer", "CurrentPar": 8, "Notes": "", "DisplayName": "On-street \u2014 Zone C \u00b7 Outer \u00b7 seg 7"}, "geometry": {"type": "Polygon", "coordinates": [[[-96.617421, 33.19541], [-96.617422, 33.195855], [-96.617455, 33.195855], [-96.617453, 33.19541], [-96.617421, 33.19541]]]}}, {"type": "Feature", "properties": {"LotName": "", "LotOwner": "", "LotType": "on-street", "Quadrant": "C", "StudyRing": "Outer", "CurrentPar": 10, "Notes": "", "DisplayName": "On-street \u2014 Zone C \u00b7 Outer \u00b7 seg 8"}, "geometry": {"type": "Polygon", "coordinates": [[[-96.615803, 33.194569], [-96.615794, 33.195279], [-96.615813, 33.19528], [-96.615813, 33.19528], [-96.615827, 33.19528], [-96.615835, 33.19457], [-96.615803, 33.194569]]]}}, {"type": "Feature", "properties": {"LotName": "", "LotOwner": "", "LotType": "on-street", "Quadrant": "D", "StudyRing": "Inner", "CurrentPar": 7, "Notes": "", "DisplayName": "On-street \u2014 Zone D \u00b7 Inner \u00b7 seg 1"}, "geometry": {"type": "Polygon", "coordinates": [[[-96.614329, 33.197196], [-96.614329, 33.197223], [-96.614832, 33.197222], [-96.614833, 33.197195], [-96.614329, 33.197196]]]}}, {"type": "Feature", "properties": {"LotName": "", "LotOwner": "", "LotType": "on-street", "Quadrant": "D", "StudyRing": "Inner", "CurrentPar": 7, "Notes": "Tree Occlusion Northern Spot", "DisplayName": "On-street \u2014 Zone D \u00b7 Inner \u00b7 seg 2"}, "geometry": {"type": "Polygon", "coordinates": [[[-96.61492, 33.196704], [-96.614924, 33.197107], [-96.614957, 33.197107], [-96.614957, 33.197107], [-96.614953, 33.196704], [-96.614953, 33.196704], [-96.61492, 33.196704]]]}}, {"type": "Feature", "properties": {"LotName": "Lot 5", "LotOwner": "", "LotType": "public off-street", "Quadrant": "D", "StudyRing": "Mid", "CurrentPar": 17, "Notes": "", "DisplayName": "Lot 5"}, "geometry": {"type": "Polygon", "coordinates": [[[-96.614157, 33.196675], [-96.614156, 33.196623], [-96.613527, 33.196621], [-96.613526, 33.196669], [-96.614157, 33.196675]]]}}, {"type": "Feature", "properties": {"LotName": "", "LotOwner": "", "LotType": "on-street", "Quadrant": "D", "StudyRing": "Mid", "CurrentPar": 7, "Notes": "", "DisplayName": "On-street \u2014 Zone D \u00b7 Mid \u00b7 seg 1"}, "geometry": {"type": "Polygon", "coordinates": [[[-96.614026, 33.197199], [-96.613588, 33.1972], [-96.613588, 33.197228], [-96.614093, 33.197226], [-96.614094, 33.197198], [-96.614026, 33.197199]]]}}, {"type": "Feature", "properties": {"LotName": "", "LotOwner": "", "LotType": "on-street", "Quadrant": "D", "StudyRing": "Outer", "CurrentPar": 8, "Notes": "", "DisplayName": "On-street \u2014 Zone D \u00b7 Outer \u00b7 seg 1"}, "geometry": {"type": "Polygon", "coordinates": [[[-96.612628, 33.197229], [-96.613304, 33.197226], [-96.613304, 33.197198], [-96.612628, 33.197201], [-96.612628, 33.197229]]]}}, {"type": "Feature", "properties": {"LotName": "", "LotOwner": "", "LotType": "public off-street", "Quadrant": "D", "StudyRing": "Outer", "CurrentPar": 9, "Notes": "Under Construction 2019", "DisplayName": "Public lot \u2014 Zone D \u00b7 Outer (unnamed)"}, "geometry": {"type": "Polygon", "coordinates": [[[-96.613032, 33.196521], [-96.613032, 33.19657], [-96.61326, 33.196569], [-96.6133, 33.196569], [-96.61333, 33.196569], [-96.61333, 33.19652], [-96.613032, 33.196521]]]}}, {"type": "Feature", "properties": {"LotName": "", "LotOwner": "", "LotType": "on-street", "Quadrant": "D", "StudyRing": "Mid", "CurrentPar": 7, "Notes": "", "DisplayName": "On-street \u2014 Zone D \u00b7 Mid \u00b7 seg 2"}, "geometry": {"type": "Polygon", "coordinates": [[[-96.613574, 33.195977], [-96.613574, 33.196005], [-96.614076, 33.195995], [-96.614076, 33.195967], [-96.613574, 33.195977]]]}}, {"type": "Feature", "properties": {"LotName": "", "LotOwner": "", "LotType": "on-street", "Quadrant": "D", "StudyRing": "Mid", "CurrentPar": 4, "Notes": "", "DisplayName": "On-street \u2014 Zone D \u00b7 Mid \u00b7 seg 3"}, "geometry": {"type": "Polygon", "coordinates": [[[-96.614232, 33.19604], [-96.614195, 33.196038], [-96.614191, 33.196271], [-96.614225, 33.196268], [-96.614232, 33.19604]]]}}, {"type": "Feature", "properties": {"LotName": "Municipal Court Lot West", "LotOwner": "City of McKinney", "LotType": "public off-street", "Quadrant": "D", "StudyRing": "Mid", "CurrentPar": 27, "Notes": "Tree Occlusion North Spot Mid", "DisplayName": "Municipal Court Lot West"}, "geometry": {"type": "Polygon", "coordinates": [[[-96.614196, 33.19657], [-96.614572, 33.196568], [-96.614567, 33.196286], [-96.614201, 33.196292], [-96.614196, 33.19657]]]}}, {"type": "Feature", "properties": {"LotName": "", "LotOwner": "", "LotType": "on-street", "Quadrant": "D", "StudyRing": "Mid", "CurrentPar": 5, "Notes": "", "DisplayName": "On-street \u2014 Zone D \u00b7 Mid \u00b7 seg 4"}, "geometry": {"type": "Polygon", "coordinates": [[[-96.614833, 33.195991], [-96.614835, 33.195968], [-96.614398, 33.195972], [-96.614396, 33.195996], [-96.614833, 33.195991]]]}}, {"type": "Feature", "properties": {"LotName": "", "LotOwner": "", "LotType": "on-street", "Quadrant": "D", "StudyRing": "Outer", "CurrentPar": 14, "Notes": "", "DisplayName": "On-street \u2014 Zone D \u00b7 Outer \u00b7 seg 2"}, "geometry": {"type": "Polygon", "coordinates": [[[-96.615032, 33.194254], [-96.614969, 33.194247], [-96.614913, 33.194593], [-96.614982, 33.194599], [-96.615032, 33.194254]]]}}, {"type": "Feature", "properties": {"LotName": "", "LotOwner": "", "LotType": "on-street", "Quadrant": "D", "StudyRing": "Outer", "CurrentPar": 17, "Notes": "", "DisplayName": "On-street \u2014 Zone D \u00b7 Outer \u00b7 seg 3"}, "geometry": {"type": "Polygon", "coordinates": [[[-96.614935, 33.195677], [-96.614954, 33.195063], [-96.614897, 33.195062], [-96.614882, 33.195671], [-96.614935, 33.195677]]]}}, {"type": "Feature", "properties": {"LotName": "", "LotOwner": "", "LotType": "on-street", "Quadrant": "D", "StudyRing": "Outer", "CurrentPar": 4, "Notes": "", "DisplayName": "On-street \u2014 Zone D \u00b7 Outer \u00b7 seg 4"}, "geometry": {"type": "Polygon", "coordinates": [[[-96.613815, 33.195895], [-96.613815, 33.195923], [-96.61411, 33.19592], [-96.614109, 33.195892], [-96.613815, 33.195895]]]}}, {"type": "Feature", "properties": {"LotName": "", "LotOwner": "", "LotType": "on-street", "Quadrant": "D", "StudyRing": "Outer", "CurrentPar": 12, "Notes": "", "DisplayName": "On-street \u2014 Zone D \u00b7 Outer \u00b7 seg 5"}, "geometry": {"type": "MultiPolygon", "coordinates": [[[[-96.614792, 33.194689], [-96.614214, 33.194689], [-96.614197, 33.194713], [-96.614815, 33.194709], [-96.614792, 33.194689]]], [[[-96.613955, 33.194709], [-96.613924, 33.194688], [-96.613636, 33.194692], [-96.613615, 33.194714], [-96.613955, 33.194709]]]]}}, {"type": "Feature", "properties": {"LotName": "", "LotOwner": "", "LotType": "on-street", "Quadrant": "D", "StudyRing": "Outer", "CurrentPar": 12, "Notes": "", "DisplayName": "On-street \u2014 Zone D \u00b7 Outer \u00b7 seg 6"}, "geometry": {"type": "MultiPolygon", "coordinates": [[[[-96.614803, 33.194803], [-96.614821, 33.194784], [-96.614186, 33.194785], [-96.614231, 33.194807], [-96.614803, 33.194803]]], [[[-96.613616, 33.194788], [-96.613647, 33.194808], [-96.613931, 33.194809], [-96.613961, 33.194786], [-96.613616, 33.194788]]]]}}, {"type": "Feature", "properties": {"LotName": "", "LotOwner": "", "LotType": "on-street", "Quadrant": "D", "StudyRing": "Outer", "CurrentPar": 5, "Notes": "Tree Occlusion Eastern Spots", "DisplayName": "On-street \u2014 Zone D \u00b7 Outer \u00b7 seg 7"}, "geometry": {"type": "Polygon", "coordinates": [[[-96.613991, 33.194133], [-96.614017, 33.194111], [-96.61361, 33.194097], [-96.613634, 33.194126], [-96.613991, 33.194133]]]}}, {"type": "Feature", "properties": {"LotName": "", "LotOwner": "", "LotType": "on-street", "Quadrant": "D", "StudyRing": "Outer", "CurrentPar": 12, "Notes": "C1 is sharper, but with tree occlusion", "DisplayName": "On-street \u2014 Zone D \u00b7 Outer \u00b7 seg 8"}, "geometry": {"type": "MultiPolygon", "coordinates": [[[[-96.613561, 33.194183], [-96.613497, 33.19418], [-96.613497, 33.194234], [-96.613557, 33.194236], [-96.613561, 33.194183]]], [[[-96.613556, 33.194256], [-96.613499, 33.194255], [-96.613499, 33.194304], [-96.613555, 33.194305], [-96.613556, 33.194256]]], [[[-96.613557, 33.194333], [-96.613502, 33.194332], [-96.613502, 33.194381], [-96.613557, 33.194381], [-96.613557, 33.194333]]], [[[-96.61355, 33.19448], [-96.613501, 33.194478], [-96.613501, 33.194528], [-96.613552, 33.194526], [-96.61355, 33.19448]]], [[[-96.613553, 33.194408], [-96.613504, 33.194406], [-96.613502, 33.194454], [-96.613552, 33.194456], [-96.613553, 33.194408]]], [[[-96.61355, 33.194553], [-96.613501, 33.194551], [-96.6135, 33.194596], [-96.61355, 33.194597], [-96.61355, 33.194553]]]]}}, {"type": "Feature", "properties": {"LotName": "", "LotOwner": "", "LotType": "on-street", "Quadrant": "D", "StudyRing": "Outer", "CurrentPar": 9, "Notes": "", "DisplayName": "On-street \u2014 Zone D \u00b7 Outer \u00b7 seg 9"}, "geometry": {"type": "MultiPolygon", "coordinates": [[[[-96.613479, 33.194919], [-96.613477, 33.195332], [-96.613507, 33.195306], [-96.613513, 33.194944], [-96.613479, 33.194919]]], [[[-96.613474, 33.195507], [-96.613478, 33.195742], [-96.613502, 33.195721], [-96.613505, 33.19553], [-96.613474, 33.195507]]]]}}, {"type": "Feature", "properties": {"LotName": "", "LotOwner": "", "LotType": "on-street", "Quadrant": "D", "StudyRing": "Outer", "CurrentPar": 22, "Notes": "", "DisplayName": "On-street \u2014 Zone D \u00b7 Outer \u00b7 seg 10"}, "geometry": {"type": "MultiPolygon", "coordinates": [[[[-96.613335, 33.194968], [-96.613336, 33.195242], [-96.613393, 33.195243], [-96.613394, 33.194967], [-96.613335, 33.194968]]], [[[-96.613343, 33.195519], [-96.613348, 33.195768], [-96.613393, 33.195769], [-96.613391, 33.195517], [-96.613343, 33.195519]]]]}}, {"type": "Feature", "properties": {"LotName": "", "LotOwner": "", "LotType": "on-street", "Quadrant": "D", "StudyRing": "Outer", "CurrentPar": 4, "Notes": "Under Construction 2019", "DisplayName": "On-street \u2014 Zone D \u00b7 Outer \u00b7 seg 11"}, "geometry": {"type": "Polygon", "coordinates": [[[-96.612667, 33.196521], [-96.612667, 33.196549], [-96.612957, 33.196551], [-96.612956, 33.196523], [-96.612667, 33.196521]]]}}, {"type": "Feature", "properties": {"LotName": "", "LotOwner": "", "LotType": "on-street", "Quadrant": "D", "StudyRing": "Outer", "CurrentPar": 8, "Notes": "", "DisplayName": "On-street \u2014 Zone D \u00b7 Outer \u00b7 seg 12"}, "geometry": {"type": "Polygon", "coordinates": [[[-96.613053, 33.195917], [-96.613051, 33.195868], [-96.612779, 33.195869], [-96.612783, 33.195922], [-96.613053, 33.195917]]]}}, {"type": "Feature", "properties": {"LotName": "", "LotOwner": "", "LotType": "on-street", "Quadrant": "D", "StudyRing": "Mid", "CurrentPar": 7, "Notes": "", "DisplayName": "On-street \u2014 Zone D \u00b7 Mid \u00b7 seg 5"}, "geometry": {"type": "Polygon", "coordinates": [[[-96.614925, 33.196192], [-96.614927, 33.196497], [-96.614949, 33.1965], [-96.614949, 33.196497], [-96.61496, 33.196497], [-96.614958, 33.196192], [-96.614925, 33.196192]]]}}, {"type": "Feature", "properties": {"LotName": "", "LotOwner": "", "LotType": "on-street", "Quadrant": "C", "StudyRing": "Mid", "CurrentPar": 4, "Notes": "", "DisplayName": "On-street \u2014 Zone C \u00b7 Mid \u00b7 seg 4"}, "geometry": {"type": "Polygon", "coordinates": [[[-96.615877, 33.196394], [-96.615877, 33.196394], [-96.615871, 33.196394], [-96.615868, 33.196649], [-96.615872, 33.196649], [-96.615901, 33.196649], [-96.615904, 33.196394], [-96.615877, 33.196394]]]}}, {"type": "Feature", "properties": {"LotName": "", "LotOwner": "", "LotType": "on-street", "Quadrant": "C", "StudyRing": "Outer", "CurrentPar": 6, "Notes": "", "DisplayName": "On-street \u2014 Zone C \u00b7 Outer \u00b7 seg 9"}, "geometry": {"type": "Polygon", "coordinates": [[[-96.615884, 33.19536], [-96.61588, 33.195732], [-96.615884, 33.195732], [-96.615912, 33.195732], [-96.615916, 33.19536], [-96.615884, 33.19536]]]}}, {"type": "Feature", "properties": {"LotName": "", "LotOwner": "", "LotType": "on-street", "Quadrant": "C", "StudyRing": "Outer", "CurrentPar": 10, "Notes": "", "DisplayName": "On-street \u2014 Zone C \u00b7 Outer \u00b7 seg 10"}, "geometry": {"type": "Polygon", "coordinates": [[[-96.615895, 33.194708], [-96.615863, 33.194708], [-96.615866, 33.195256], [-96.615898, 33.195256], [-96.615895, 33.194708]]]}}, {"type": "Feature", "properties": {"LotName": "", "LotOwner": "", "LotType": "on-street", "Quadrant": "A", "StudyRing": "Mid", "CurrentPar": 4, "Notes": "", "DisplayName": "On-street \u2014 Zone A \u00b7 Mid \u00b7 seg 4"}, "geometry": {"type": "MultiPolygon", "coordinates": [[[[-96.61671, 33.197903], [-96.61671, 33.197931], [-96.616929, 33.197928], [-96.616929, 33.197904], [-96.616929, 33.197901], [-96.61671, 33.197903]]], [[[-96.617058, 33.1979], [-96.617058, 33.197927], [-96.617129, 33.197926], [-96.617129, 33.197899], [-96.617058, 33.1979]]]]}}, {"type": "Feature", "properties": {"LotName": "", "LotOwner": "", "LotType": "on-street", "Quadrant": "A", "StudyRing": "Outer", "CurrentPar": 7, "Notes": "", "DisplayName": "On-street \u2014 Zone A \u00b7 Outer \u00b7 seg 9"}, "geometry": {"type": "Polygon", "coordinates": [[[-96.617391, 33.199158], [-96.61742, 33.199158], [-96.617419, 33.198663], [-96.617398, 33.198662], [-96.617386, 33.198662], [-96.617387, 33.199158], [-96.617391, 33.199158], [-96.617391, 33.199158]]]}}, {"type": "Feature", "properties": {"LotName": "", "LotOwner": "", "LotType": "on-street", "Quadrant": "D", "StudyRing": "Inner", "CurrentPar": 3, "Notes": "", "DisplayName": "On-street \u2014 Zone D \u00b7 Inner \u00b7 seg 3"}, "geometry": {"type": "Polygon", "coordinates": [[[-96.614604, 33.196634], [-96.614596, 33.196597], [-96.614437, 33.196597], [-96.61444, 33.196637], [-96.614604, 33.196634]]]}}, {"type": "Feature", "properties": {"LotName": "City Hall N", "LotOwner": "City of McKinney", "LotType": "public off-street", "Quadrant": "", "StudyRing": "", "CurrentPar": 103, "Notes": "", "DisplayName": "City Hall N"}, "geometry": {"type": "Polygon", "coordinates": [[[-96.610303, 33.199562], [-96.610307, 33.199501], [-96.610377, 33.199498], [-96.610383, 33.199332], [-96.610305, 33.199329], [-96.610308, 33.199018], [-96.61017, 33.199014], [-96.610161, 33.199071], [-96.609984, 33.199063], [-96.609984, 33.198995], [-96.60963, 33.198999], [-96.609622, 33.199072], [-96.609557, 33.199073], [-96.609541, 33.199487], [-96.609613, 33.199494], [-96.609614, 33.199555], [-96.609974, 33.199558], [-96.609975, 33.199508], [-96.610149, 33.199511], [-96.610154, 33.199559], [-96.610303, 33.199562]]]}}, {"type": "Feature", "properties": {"LotName": "City Hall N", "LotOwner": "City of McKinney", "LotType": "on-street", "Quadrant": "", "StudyRing": "", "CurrentPar": 1, "Notes": "", "DisplayName": "City Hall N"}, "geometry": {"type": "Polygon", "coordinates": [[[-96.610259, 33.199627], [-96.610262, 33.199602], [-96.610185, 33.199597], [-96.610185, 33.199626], [-96.610259, 33.199627]]]}}, {"type": "Feature", "properties": {"LotName": "City Hall N", "LotOwner": "City of McKinney", "LotType": "on-street", "Quadrant": "", "StudyRing": "", "CurrentPar": 5, "Notes": "", "DisplayName": "City Hall N"}, "geometry": {"type": "Polygon", "coordinates": [[[-96.609951, 33.199617], [-96.609947, 33.199596], [-96.609582, 33.199592], [-96.609579, 33.199619], [-96.609951, 33.199617]]]}}, {"type": "Feature", "properties": {"LotName": "City Hall N", "LotOwner": "City of McKinney", "LotType": "on-street", "Quadrant": "", "StudyRing": "", "CurrentPar": 10, "Notes": "", "DisplayName": "City Hall N"}, "geometry": {"type": "Polygon", "coordinates": [[[-96.60947, 33.199533], [-96.609504, 33.199533], [-96.609503, 33.199394], [-96.609488, 33.199292], [-96.609459, 33.199175], [-96.609419, 33.199048], [-96.609387, 33.199052], [-96.609424, 33.199168], [-96.609456, 33.199297], [-96.609473, 33.199393], [-96.609478, 33.199456], [-96.60947, 33.199533]]]}}, {"type": "Feature", "properties": {"LotName": "City Hall NE", "LotOwner": "City of McKinney", "LotType": "public off-street", "Quadrant": "", "StudyRing": "", "CurrentPar": 14, "Notes": "", "DisplayName": "City Hall NE"}, "geometry": {"type": "Polygon", "coordinates": [[[-96.609236, 33.199258], [-96.609192, 33.199189], [-96.60876, 33.199195], [-96.608728, 33.19921], [-96.60875, 33.19925], [-96.609236, 33.199258]]]}}, {"type": "Feature", "properties": {"LotName": "City Hall E", "LotOwner": "City of McKinney", "LotType": "public off-street", "Quadrant": "", "StudyRing": "", "CurrentPar": 48, "Notes": "", "DisplayName": "City Hall E"}, "geometry": {"type": "Polygon", "coordinates": [[[-96.609148, 33.199169], [-96.609149, 33.199127], [-96.609222, 33.199102], [-96.609162, 33.198879], [-96.609159, 33.198718], [-96.608956, 33.19871], [-96.60896, 33.198839], [-96.608988, 33.199003], [-96.609054, 33.199006], [-96.609045, 33.199047], [-96.609004, 33.199055], [-96.608896, 33.199049], [-96.60887, 33.199024], [-96.608868, 33.198998], [-96.608929, 33.198998], [-96.608942, 33.198711], [-96.608739, 33.198707], [-96.608727, 33.1991], [-96.608791, 33.199111], [-96.608793, 33.199165], [-96.609148, 33.199169]]]}}, {"type": "Feature", "properties": {"LotName": "City Hall SE", "LotOwner": "City of McKinney", "LotType": "public off-street", "Quadrant": "", "StudyRing": "", "CurrentPar": 52, "Notes": "", "DisplayName": "City Hall SE"}, "geometry": {"type": "Polygon", "coordinates": [[[-96.608984, 33.198553], [-96.609116, 33.198567], [-96.609124, 33.198537], [-96.609183, 33.198542], [-96.609216, 33.198425], [-96.609236, 33.198426], [-96.609275, 33.198183], [-96.60919, 33.198189], [-96.609188, 33.198127], [-96.608865, 33.19812], [-96.608866, 33.19818], [-96.608766, 33.198181], [-96.608749, 33.198548], [-96.608945, 33.198553], [-96.608966, 33.198284], [-96.608904, 33.198278], [-96.608911, 33.198241], [-96.608963, 33.198235], [-96.609043, 33.198238], [-96.609095, 33.198244], [-96.609114, 33.198273], [-96.609107, 33.198289], [-96.60905, 33.198288], [-96.608984, 33.198553]]]}}, {"type": "Feature", "properties": {"LotName": "Tupps", "LotOwner": "Tupps", "LotType": "public off-street", "Quadrant": "", "StudyRing": "", "CurrentPar": 152, "Notes": "", "DisplayName": "Tupps"}, "geometry": {"type": "Polygon", "coordinates": [[[-96.610319, 33.197093], [-96.610558, 33.197097], [-96.610668, 33.194574], [-96.610734, 33.194554], [-96.610751, 33.194229], [-96.61058, 33.194141], [-96.610366, 33.194164], [-96.610347, 33.195318], [-96.610323, 33.196794], [-96.610319, 33.197093]]]}}, {"type": "Feature", "properties": {"LotName": "Flour Mill", "LotOwner": "Flour Mill", "LotType": "public off-street", "Quadrant": "", "StudyRing": "", "CurrentPar": 30, "Notes": "", "DisplayName": "Flour Mill"}, "geometry": {"type": "Polygon", "coordinates": [[[-96.6106, 33.197811], [-96.610598, 33.197628], [-96.610595, 33.197334], [-96.610412, 33.197331], [-96.610412, 33.197353], [-96.610294, 33.197358], [-96.610283, 33.197897], [-96.61052, 33.197911], [-96.610527, 33.197808], [-96.6106, 33.197811]]]}}]}