{"type": "FeatureCollection", "features": [{"type": "Feature", "properties": {"Sector": "A", "SectorNumber": 1}, "geometry": {"type": "Polygon", "coordinates": [[[-96.61663650399998, 33.20053683400005], [-96.61937068099996, 33.20053081900005], [-96.61944553799998, 33.19723055600008], [-96.61938694899999, 33.19723053200005], [-96.61813759299997, 33.19722764800002], [-96.61760863599994, 33.19723630300007], [-96.61739019599997, 33.197239756000045], [-96.61662572699998, 33.197247479000055], [-96.61631916699997, 33.197248355000056], [-96.61608370899995, 33.19724449300003], [-96.61601277399996, 33.19724342300003], [-96.61593889899996, 33.19724708200005], [-96.61588764699997, 33.197254661000045], [-96.61584480599998, 33.197267139000076], [-96.61580211599994, 33.19728125700004], [-96.61572125299995, 33.19729382500003], [-96.61560789999999, 33.197296650000055], [-96.61544351999999, 33.19730271100008], [-96.61518713399994, 33.197301019000065], [-96.61508241399997, 33.19728960900005], [-96.61504143499997, 33.19727861900003], [-96.61501323899995, 33.19726414100006], [-96.61503921499997, 33.197293787000035], [-96.61505790499996, 33.19732215300007], [-96.61506868999999, 33.19734643700008], [-96.61507220299995, 33.19737812400007], [-96.61507659099999, 33.19786024700005], [-96.61507157999995, 33.19788181500007], [-96.61505541599996, 33.19790465800003], [-96.61503581899996, 33.19792939000007], [-96.61501435799994, 33.19795278200007], [-96.61500590499998, 33.198042040000075], [-96.61500071299997, 33.198623593000036], [-96.61499334799998, 33.19927499900007], [-96.61498461599996, 33.199875527000074], [-96.61498200699998, 33.200533876000065], [-96.61498201299997, 33.20053481600007], [-96.61663650399998, 33.20053683400005]]]}}, {"type": "Feature", "properties": {"Sector": "B", "SectorNumber": 2}, "geometry": {"type": "Polygon", "coordinates": [[[-96.61491243399996, 33.19724109800006], [-96.61419657199997, 33.19725456200007], [-96.61345227399994, 33.197259392000035], [-96.61319337299994, 33.19726024000005], [-96.61241784199996, 33.19725751300007], [-96.61227441999995, 33.19797765000004], [-96.61209886999995, 33.19861826700003], [-96.61207413299996, 33.19874297300004], [-96.61206169399998, 33.19878952000005], [-96.61205085899996, 33.198837463000075], [-96.61204087099998, 33.19888404500006], [-96.61203167099995, 33.19893201300005], [-96.61202328799999, 33.19897999500006], [-96.61201572299996, 33.19902798900006], [-96.61200979199998, 33.19907600700003], [-96.61200388899994, 33.19912265000005], [-96.61199959299995, 33.19917069300004], [-96.61199596099999, 33.199264104000065], [-96.61198209499997, 33.19991266300008], [-96.61195122899994, 33.20053112000005], [-96.61498201299997, 33.20053481600007], [-96.61498200699998, 33.200533876000065], [-96.61498461599996, 33.199875527000074], [-96.61499334799998, 33.19927499900007], [-96.61500071299997, 33.198623593000036], [-96.61500590499998, 33.198042040000075], [-96.61501435799994, 33.19795278200007], [-96.61503581899996, 33.19792939000007], [-96.61505541599996, 33.19790465800003], [-96.61507157999995, 33.19788181500007], [-96.61507659099999, 33.19786024700005], [-96.61507220299995, 33.19737812400007], [-96.61506868999999, 33.19734643700008], [-96.61505790499996, 33.19732215300007], [-96.61503921499997, 33.197293787000035], [-96.61501323899995, 33.19726414100006], [-96.61498797399997, 33.19725025500003], [-96.61494385499998, 33.19724310600003], [-96.61491243399996, 33.19724109800006]]]}}, {"type": "Feature", "properties": {"Sector": "C", "SectorNumber": 3}, "geometry": {"type": "Polygon", "coordinates": [[[-96.61817177699999, 33.19399133300004], [-96.61593415499999, 33.19399175600006], [-96.61511817499996, 33.19399175600006], [-96.61509696599995, 33.19411391400007], [-96.61499834499995, 33.194757942000024], [-96.61499343799994, 33.19478998400007], [-96.61500225299994, 33.19533442200003], [-96.61498666099999, 33.19594996600006], [-96.61499645899994, 33.19660163100008], [-96.61499232199998, 33.197180305000074], [-96.61499317999994, 33.19720656800007], [-96.61499826999994, 33.19723408700003], [-96.61501323899995, 33.19726414100006], [-96.61504143499997, 33.19727861900003], [-96.61508241399997, 33.19728960900005], [-96.61518713399994, 33.197301019000065], [-96.61544351999999, 33.19730271100008], [-96.61560789999999, 33.197296650000055], [-96.61572125299995, 33.19729382500003], [-96.61580211599994, 33.19728125700004], [-96.61584480599998, 33.197267139000076], [-96.61588764699997, 33.197254661000045], [-96.61593889899996, 33.19724708200005], [-96.61601277399996, 33.19724342300003], [-96.61608370899995, 33.19724449300003], [-96.61631916699997, 33.197248355000056], [-96.61662572699998, 33.197247479000055], [-96.61739019599997, 33.197239756000045], [-96.61760863599994, 33.19723630300007], [-96.61813759299997, 33.19722764800002], [-96.61938694899999, 33.19723053200005], [-96.61944553799998, 33.19723055600008], [-96.61951899599995, 33.19399197600006], [-96.61817177699999, 33.19399133300004]]]}}, {"type": "Feature", "properties": {"Sector": "D", "SectorNumber": 4}, "geometry": {"type": "Polygon", "coordinates": [[[-96.61511817499996, 33.19399175600006], [-96.61259971699997, 33.19399175600006], [-96.61258745399994, 33.19404029000003], [-96.61257344099994, 33.19412184000004], [-96.61256899099999, 33.19417492100007], [-96.61256494999998, 33.194245728000055], [-96.61248657199997, 33.19594538000007], [-96.61246302599994, 33.196573003000026], [-96.61245639999999, 33.196806570000035], [-96.61245125199997, 33.196894461000056], [-96.61244671899999, 33.19695349600005], [-96.61243970699996, 33.197013869000045], [-96.61243269399995, 33.19707424000006], [-96.61242407699996, 33.197133214000075], [-96.61241784199996, 33.19725751300007], [-96.61319337299994, 33.19726024000005], [-96.61345227399994, 33.197259392000035], [-96.61419657199997, 33.19725456200007], [-96.61491243399996, 33.19724109800006], [-96.61494385499998, 33.19724310600003], [-96.61498797399997, 33.19725025500003], [-96.61501323899995, 33.19726414100006], [-96.61499826999994, 33.19723408700003], [-96.61499317999994, 33.19720656800007], [-96.61499232199998, 33.197180305000074], [-96.61499645899994, 33.19660163100008], [-96.61498666099999, 33.19594996600006], [-96.61500225299994, 33.19533442200003], [-96.61499343799994, 33.19478998400007], [-96.61499834499995, 33.194757942000024], [-96.61509696599995, 33.19411391400007], [-96.61511817499996, 33.19399175600006]]]}}, {"type": "Feature", "properties": {"Sector": "E", "SectorNumber": 5}, "geometry": {"type": "Polygon", "coordinates": [[[-96.61035732299996, 33.19725179400007], [-96.61027964499999, 33.19725278400006], [-96.60970292999997, 33.19725938000005], [-96.60865232099997, 33.19725211200006], [-96.60840862899994, 33.19725340900004], [-96.60840885999994, 33.20052470400003], [-96.60852005499999, 33.200526936000074], [-96.61195122899994, 33.20053112000005], [-96.61198209499997, 33.19991266300008], [-96.61199596099999, 33.199264104000065], [-96.61199959299995, 33.19917069300004], [-96.61200388899994, 33.19912265000005], [-96.61200979199998, 33.19907600700003], [-96.61201572299996, 33.19902798900006], [-96.61202328799999, 33.19897999500006], [-96.61203167099995, 33.19893201300005], [-96.61204087099998, 33.19888404500006], [-96.61205085899996, 33.198837463000075], [-96.61206169399998, 33.19878952000005], [-96.61207413299996, 33.19874297300004], [-96.61209886999995, 33.19861826700003], [-96.61227441999995, 33.19797765000004], [-96.61241784599997, 33.19725751300007], [-96.61201096899998, 33.19725342700008], [-96.61169161599997, 33.197253584000066], [-96.61168044399994, 33.19764839100003], [-96.61112494999998, 33.19763517400003], [-96.61113402299998, 33.19725385700008], [-96.61107049099996, 33.197253888000034], [-96.61091788899995, 33.19725396300004], [-96.61035732299996, 33.19725179400007]]]}}, {"type": "Feature", "properties": {"Sector": "F", "SectorNumber": 5}, "geometry": {"type": "Polygon", "coordinates": [[[-96.61259971699997, 33.19399175600006], [-96.61017303199998, 33.19399175600006], [-96.61017916699996, 33.19521698800003], [-96.60840848099997, 33.19516726000006], [-96.60840862899994, 33.19725340900004], [-96.60865232099997, 33.19725211200006], [-96.60970292999997, 33.19725938000005], [-96.61027964499999, 33.19725278400006], [-96.61035732299996, 33.19725179400007], [-96.61091788899995, 33.19725396300004], [-96.61107049099996, 33.197253888000034], [-96.61113402299998, 33.19725385700008], [-96.61112494999998, 33.19763517400003], [-96.61168044399994, 33.19764839100003], [-96.61169161599997, 33.197253584000066], [-96.61201096899998, 33.19725342700008], [-96.61241784599997, 33.19725751300007], [-96.61242407699996, 33.197133214000075], [-96.61243269399995, 33.19707424000006], [-96.61243970699996, 33.197013869000045], [-96.61244671899999, 33.19695349600005], [-96.61245125199997, 33.196894461000056], [-96.61245639999999, 33.196806570000035], [-96.61246302599994, 33.196573003000026], [-96.61248657199997, 33.19594538000007], [-96.61256494999998, 33.194245728000055], [-96.61256899099999, 33.19417492100007], [-96.61257344099994, 33.19412184000004], [-96.61258745399994, 33.19404029000003], [-96.61259971699997, 33.19399175600006]]]}}]}