{"type":"FeatureCollection","features":[{"type":"Feature","id":1,"geometry":{"type":"Polygon","coordinates":[[[-96.616636503999985,33.200536834000047],[-96.619370680999964,33.200530819000051],[-96.619445537999979,33.197230556000079],[-96.619386948999988,33.197230532000049],[-96.618137592999972,33.197227648000023],[-96.617608635999943,33.197236303000068],[-96.617390195999974,33.197239756000045],[-96.616625726999985,33.197247479000055],[-96.616319166999972,33.197248355000056],[-96.616083708999952,33.197244493000028],[-96.616012773999955,33.197243423000032],[-96.615938898999957,33.197247082000047],[-96.615887646999965,33.197254661000045],[-96.615844805999984,33.197267139000076],[-96.615802115999941,33.197281257000043],[-96.615721252999947,33.197293825000031],[-96.615607899999986,33.197296650000055],[-96.615443519999985,33.197302711000077],[-96.615187133999939,33.197301019000065],[-96.615082413999971,33.197289609000052],[-96.615041434999966,33.197278619000031],[-96.61501323899995,33.197264141000062],[-96.615039214999967,33.197293787000035],[-96.615057904999958,33.197322153000073],[-96.615068689999987,33.197346437000078],[-96.615072202999954,33.197378124000068],[-96.61507659099999,33.197860247000051],[-96.615071579999949,33.197881815000073],[-96.615055415999961,33.197904658000027],[-96.615035818999957,33.19792939000007],[-96.615014357999939,33.197952782000073],[-96.615005904999975,33.198042040000075],[-96.615000712999972,33.198623593000036],[-96.614993347999985,33.199274999000068],[-96.614984615999958,33.199875527000074],[-96.614982006999981,33.200533876000065],[-96.614982012999974,33.200534816000072],[-96.616636503999985,33.200536834000047]]]},"properties":{"OBJECTID":1,"Sector":"A","SectorNumber":1,"ORIG_FID":1,"Shape_Length":0.015443635526267726,"Shape_Area":1.4456531651462136e-05}},{"type":"Feature","id":2,"geometry":{"type":"Polygon","coordinates":[[[-96.614912433999962,33.197241098000063],[-96.614196571999969,33.197254562000069],[-96.61345227399994,33.197259392000035],[-96.613193372999945,33.197260240000048],[-96.612417841999957,33.197257513000068],[-96.612274419999949,33.197977650000041],[-96.612098869999954,33.198618267000029],[-96.612074132999965,33.198742973000037],[-96.612061693999976,33.198789520000048],[-96.612050858999964,33.198837463000075],[-96.612040870999977,33.198884045000057],[-96.612031670999954,33.198932013000046],[-96.612023287999989,33.198979995000059],[-96.612015722999956,33.199027989000058],[-96.612009791999981,33.199076007000031],[-96.612003888999936,33.199122650000049],[-96.61199959299995,33.199170693000042],[-96.611995960999991,33.199264104000065],[-96.611982094999973,33.199912663000077],[-96.611951228999942,33.200531120000051],[-96.614982012999974,33.200534816000072],[-96.614982006999981,33.200533876000065],[-96.614984615999958,33.199875527000074],[-96.614993347999985,33.199274999000068],[-96.615000712999972,33.198623593000036],[-96.615005904999975,33.198042040000075],[-96.615014357999939,33.197952782000073],[-96.615035818999957,33.19792939000007],[-96.615055415999961,33.197904658000027],[-96.615071579999949,33.197881815000073],[-96.61507659099999,33.197860247000051],[-96.615072202999954,33.197378124000068],[-96.615068689999987,33.197346437000078],[-96.615057904999958,33.197322153000073],[-96.615039214999967,33.197293787000035],[-96.61501323899995,33.197264141000062],[-96.614987973999973,33.197250255000029],[-96.614943854999979,33.19724310600003],[-96.614912433999962,33.197241098000063]]]},"properties":{"OBJECTID":2,"Sector":"B","SectorNumber":2,"ORIG_FID":4,"Shape_Length":0.012262319873703595,"Shape_Area":9.4983726740398683e-06}},{"type":"Feature","id":3,"geometry":{"type":"Polygon","coordinates":[[[-96.618171776999986,33.193991333000042],[-96.615934154999991,33.193991756000059],[-96.615118174999964,33.193991756000059],[-96.615096965999953,33.19411391400007],[-96.614998344999947,33.194757942000024],[-96.614993437999942,33.194789984000067],[-96.615002252999943,33.19533442200003],[-96.614986660999989,33.195949966000057],[-96.61499645899994,33.196601631000078],[-96.614992321999978,33.197180305000074],[-96.614993179999942,33.19720656800007],[-96.614998269999944,33.197234087000027],[-96.61501323899995,33.197264141000062],[-96.615041434999966,33.197278619000031],[-96.615082413999971,33.197289609000052],[-96.615187133999939,33.197301019000065],[-96.615443519999985,33.197302711000077],[-96.615607899999986,33.197296650000055],[-96.615721252999947,33.197293825000031],[-96.615802115999941,33.197281257000043],[-96.615844805999984,33.197267139000076],[-96.615887646999965,33.197254661000045],[-96.615938898999957,33.197247082000047],[-96.616012773999955,33.197243423000032],[-96.616083708999952,33.197244493000028],[-96.616319166999972,33.197248355000056],[-96.616625726999985,33.197247479000055],[-96.617390195999974,33.197239756000045],[-96.617608635999943,33.197236303000068],[-96.618137592999972,33.197227648000023],[-96.619386948999988,33.197230532000049],[-96.619445537999979,33.197230556000079],[-96.619518995999954,33.193991976000063],[-96.618171776999986,33.193991333000042]]]},"properties":{"OBJECTID":3,"Sector":"C","SectorNumber":3,"ORIG_FID":3,"Shape_Length":0.015370560483412668,"Shape_Area":1.4565542500320676e-05}},{"type":"Feature","id":4,"geometry":{"type":"Polygon","coordinates":[[[-96.615118174999964,33.193991756000059],[-96.612599716999966,33.193991756000059],[-96.612587453999936,33.194040290000032],[-96.612573440999938,33.194121840000037],[-96.612568990999989,33.194174921000069],[-96.612564949999978,33.194245728000055],[-96.612486571999966,33.195945380000069],[-96.612463025999944,33.196573003000026],[-96.612456399999985,33.196806570000035],[-96.612451251999971,33.196894461000056],[-96.61244671899999,33.196953496000049],[-96.612439706999965,33.197013869000045],[-96.612432693999949,33.197074240000063],[-96.612424076999957,33.197133214000075],[-96.612417841999957,33.197257513000068],[-96.613193372999945,33.197260240000048],[-96.61345227399994,33.197259392000035],[-96.614196571999969,33.197254562000069],[-96.614912433999962,33.197241098000063],[-96.614943854999979,33.19724310600003],[-96.614987973999973,33.197250255000029],[-96.61501323899995,33.197264141000062],[-96.614998269999944,33.197234087000027],[-96.614993179999942,33.19720656800007],[-96.614992321999978,33.197180305000074],[-96.61499645899994,33.196601631000078],[-96.614986660999989,33.195949966000057],[-96.615002252999943,33.19533442200003],[-96.614993437999942,33.194789984000067],[-96.614998344999947,33.194757942000024],[-96.615096965999953,33.19411391400007],[-96.615118174999964,33.193991756000059]]]},"properties":{"OBJECTID":4,"Sector":"D","SectorNumber":4,"ORIG_FID":5,"Shape_Length":0.011677699619056356,"Shape_Area":8.1781069159896287e-06}},{"type":"Feature","id":5,"geometry":{"type":"Polygon","coordinates":[[[-96.61035732299996,33.197251794000067],[-96.610279644999991,33.197252784000057],[-96.609702929999969,33.197259380000048],[-96.608652320999965,33.197252112000058],[-96.608408628999939,33.197253409000041],[-96.60840885999994,33.200524704000031],[-96.608520054999985,33.200526936000074],[-96.611951228999942,33.200531120000051],[-96.611982094999973,33.199912663000077],[-96.611995960999991,33.199264104000065],[-96.61199959299995,33.199170693000042],[-96.612003888999936,33.199122650000049],[-96.612009791999981,33.199076007000031],[-96.612015722999956,33.199027989000058],[-96.612023287999989,33.198979995000059],[-96.612031670999954,33.198932013000046],[-96.612040870999977,33.198884045000057],[-96.612050858999964,33.198837463000075],[-96.612061693999976,33.198789520000048],[-96.612074132999965,33.198742973000037],[-96.612098869999954,33.198618267000029],[-96.612274419999949,33.197977650000041],[-96.612417845999971,33.197257513000068],[-96.612010968999982,33.197253427000078],[-96.611691615999973,33.197253584000066],[-96.611680443999944,33.19764839100003],[-96.611124949999976,33.197635174000027],[-96.611134022999977,33.197253857000078],[-96.611070490999964,33.197253888000034],[-96.61091788899995,33.197253963000037],[-96.61035732299996,33.197251794000067]]]},"properties":{"OBJECTID":5,"Sector":"E","SectorNumber":5,"ORIG_FID":2,"Shape_Length":0.014919262078098917,"Shape_Area":1.1909081905083824e-05}},{"type":"Feature","id":6,"geometry":{"type":"Polygon","coordinates":[[[-96.612599716999966,33.193991756000059],[-96.610173031999977,33.193991756000059],[-96.610179166999956,33.195216988000027],[-96.608408480999969,33.195167260000062],[-96.608408628999939,33.197253409000041],[-96.608652320999965,33.197252112000058],[-96.609702929999969,33.197259380000048],[-96.610279644999991,33.197252784000057],[-96.61035732299996,33.197251794000067],[-96.61091788899995,33.197253963000037],[-96.611070490999964,33.197253888000034],[-96.611134022999977,33.197253857000078],[-96.611124949999976,33.197635174000027],[-96.611680443999944,33.19764839100003],[-96.611691615999973,33.197253584000066],[-96.612010968999982,33.197253427000078],[-96.612417845999971,33.197257513000068],[-96.612424076999957,33.197133214000075],[-96.612432693999949,33.197074240000063],[-96.612439706999965,33.197013869000045],[-96.61244671899999,33.196953496000049],[-96.612451251999971,33.196894461000056],[-96.612456399999985,33.196806570000035],[-96.612463025999944,33.196573003000026],[-96.612486571999966,33.195945380000069],[-96.612564949999978,33.194245728000055],[-96.612568990999989,33.194174921000069],[-96.612573440999938,33.194121840000037],[-96.612587453999936,33.194040290000032],[-96.612599716999966,33.193991756000059]]]},"properties":{"OBJECTID":6,"Sector":"F","SectorNumber":5,"ORIG_FID":2,"Shape_Length":0.015566267172085421,"Shape_Area":1.1454011556930528e-05}}]}