{"type": "FeatureCollection", "features": [{"type": "Feature", "properties": {"Sector": "A"}, "geometry": {"type": "LineString", "coordinates": [[-96.618079, 33.197233], [-96.617395, 33.197239], [-96.616994, 33.197242], [-96.616649, 33.197246], [-96.616667, 33.197685], [-96.616625, 33.197687], [-96.616622, 33.197247], [-96.615884, 33.19725], [-96.615012, 33.197249], [-96.614999, 33.197923], [-96.615776, 33.197909], [-96.615768, 33.197332], [-96.615072, 33.197338], [-96.615088, 33.198632], [-96.615839, 33.19862], [-96.615844, 33.197963], [-96.616598, 33.197958], [-96.616606, 33.19842], [-96.616674, 33.198419], [-96.616672, 33.197964], [-96.617381, 33.197966], [-96.61828, 33.197947], [-96.619082, 33.197944], [-96.619058, 33.198605], [-96.618672, 33.19861], [-96.618203, 33.198613], [-96.618199, 33.198344], [-96.618138, 33.198349], [-96.618133, 33.198609], [-96.617385, 33.19861], [-96.617389, 33.199201], [-96.618204, 33.199217], [-96.618206, 33.199563], [-96.61814, 33.199563], [-96.61814, 33.199278], [-96.616641, 33.199279], [-96.616634, 33.200524], [-96.615848, 33.200546], [-96.615843, 33.199266], [-96.614982, 33.199269], [-96.614992, 33.200491]]}}, {"type": "Feature", "properties": {"Sector": "B"}, "geometry": {"type": "LineString", "coordinates": [[-96.615151, 33.197298], [-96.614957, 33.197258], [-96.614212, 33.197256], [-96.612582, 33.197262], [-96.612332, 33.197261], [-96.612175, 33.197969], [-96.612582, 33.197974], [-96.613461, 33.197979], [-96.615011, 33.19797], [-96.614999, 33.198628], [-96.613446, 33.198637], [-96.612331, 33.198632], [-96.612329, 33.199272], [-96.613453, 33.199276], [-96.613446, 33.199681], [-96.614194, 33.199686], [-96.61421, 33.19928], [-96.614599, 33.19928], [-96.614593, 33.199573], [-96.614991, 33.199575], [-96.614984, 33.200026], [-96.614785, 33.200031], [-96.614785, 33.200033]]}}, {"type": "Feature", "properties": {"Sector": "C"}, "geometry": {"type": "LineString", "coordinates": [[-96.618137, 33.197228], [-96.618147, 33.19659], [-96.618147, 33.195927], [-96.617406, 33.195936], [-96.617398, 33.195343], [-96.616631, 33.195346], [-96.616614, 33.196885], [-96.616739, 33.196885], [-96.616736, 33.19659], [-96.61739, 33.196589], [-96.617394, 33.197244], [-96.615838, 33.197242], [-96.615849, 33.196313], [-96.616071, 33.196317], [-96.616073, 33.19662], [-96.616405, 33.196618], [-96.61642, 33.195957], [-96.615856, 33.195953], [-96.615865, 33.194296], [-96.615063, 33.19427], [-96.614998, 33.194769], [-96.614994, 33.195947], [-96.614993, 33.197225]]}}, {"type": "Feature", "properties": {"Sector": "D"}, "geometry": {"type": "LineString", "coordinates": [[-96.614246, 33.195717], [-96.61425, 33.195947], [-96.613426, 33.195947], [-96.61342, 33.195402], [-96.61342, 33.194069], [-96.613523, 33.19407], [-96.613524, 33.194729], [-96.61499, 33.194763], [-96.614997, 33.195956], [-96.61498, 33.197252], [-96.612482, 33.197245], [-96.612531, 33.196573], [-96.613437, 33.196588], [-96.614171, 33.196628], [-96.614175, 33.196027]]}}, {"type": "Feature", "properties": {"Sector": "D"}, "geometry": {"type": "LineString", "coordinates": [[-96.614249, 33.195717], [-96.614246, 33.195413]]}}, {"type": "Feature", "properties": {"Sector": "E"}, "geometry": {"type": "LineString", "coordinates": [[-96.608551, 33.199874], [-96.608603, 33.198635], [-96.609216, 33.198642], [-96.609288, 33.198642], [-96.60931, 33.198869], [-96.609434, 33.199383], [-96.609438, 33.199636], [-96.610065, 33.199645], [-96.610079, 33.198932], [-96.610078, 33.198902], [-96.609592, 33.198896], [-96.609394, 33.198928], [-96.609347, 33.198689], [-96.60934, 33.19855], [-96.609442, 33.198191], [-96.609465, 33.198031], [-96.609467, 33.197971], [-96.61047, 33.197968], [-96.612028, 33.197963], [-96.612082, 33.197813]]}}, {"type": "Feature", "properties": {"Sector": "F"}, "geometry": {"type": "LineString", "coordinates": [[-96.608621, 33.195245], [-96.608621, 33.195518], [-96.608688, 33.195586], [-96.609293, 33.195606], [-96.609217, 33.196793], [-96.609543, 33.196989], [-96.609577, 33.197084], [-96.609555, 33.197181], [-96.609619, 33.197276], [-96.609783, 33.197275], [-96.610357, 33.197271], [-96.61038, 33.196849], [-96.610431, 33.195634], [-96.610475, 33.194615], [-96.610511, 33.194003], [-96.611206, 33.19403], [-96.611218, 33.194667], [-96.61123, 33.195942], [-96.611969, 33.195963], [-96.611973, 33.195705], [-96.611973, 33.194906], [-96.611957, 33.194149], [-96.611963, 33.194023], [-96.612526, 33.194035], [-96.612493, 33.194473], [-96.612468, 33.194921], [-96.612319, 33.197247], [-96.611732, 33.197225], [-96.611406, 33.19724], [-96.611111, 33.197222], [-96.611113, 33.197031]]}}]}