{"type":"FeatureCollection","crs":{"type":"name","properties":{"name":"EPSG:3857"}},"features":[{"type":"Feature","id":1,"geometry":{"type":"LineString","coordinates":[[-10755475.34478789,3921512.6431862339],[-10755399.24839199,3921513.5039039999],[-10755354.591809306,3921513.8849189505],[-10755316.149328971,3921514.4933302626],[-10755318.2131836,3921572.891765587],[-10755313.525349703,3921573.1165979877],[-10755313.190670086,3921514.5998411104],[-10755231.053268548,3921515.0153539777],[-10755133.887884883,3921514.8614006042],[-10755132.503987603,3921604.515772514],[-10755218.967474803,3921602.6607747599],[-10755218.112091521,3921525.8499588966],[-10755140.586855682,3921526.7000076994],[-10755142.350149013,3921698.8027252182],[-10755225.953289093,3921697.2835995331],[-10755226.606762951,3921609.7671530545],[-10755310.512727996,3921609.1552709341],[-10755311.421625843,3921670.6130761206],[-10755318.985106176,3921670.5343931317],[-10755318.723223183,3921609.9310374185],[-10755397.66929725,3921610.1632875428],[-10755497.712098382,3921607.6952249333],[-10755587.022596508,3921607.2904050425],[-10755584.386949899,3921695.2241861075],[-10755541.349995494,3921695.8996191993],[-10755489.192003114,3921696.2246220931],[-10755488.688216684,3921660.5003662556],[-10755481.95198296,3921661.1620314568],[-10755481.336050669,3921695.8087328151],[-10755398.100789536,3921695.9016858116],[-10755398.585626641,3921774.4958843738],[-10755489.30629402,3921776.6022033393],[-10755489.527797069,3921822.6871753931],[-10755482.175230304,3921822.6316139176],[-10755482.100747783,3921784.7646881938],[-10755315.273015536,3921784.9479269385],[-10755314.513474209,3921950.4587765932],[-10755226.970355334,3921953.3774025962],[-10755226.455689929,3921783.0939732417],[-10755130.595452985,3921783.5689637288],[-10755131.763258569,3921946.1172887832]]},"properties":{"OBJECTID":1,"jimuDrawId":"17684","Shape_Length":3068.6045385440466,"Sector":"A","MERGE_SRC":"Routes\\A_Quadrant_Route_polyline"}},{"type":"Feature","id":2,"geometry":{"type":"LineString","coordinates":[[-10755149.392655471,3921521.319988057],[-10755127.784138607,3921516.0145295113],[-10755044.836779257,3921515.8238482997],[-10754863.429545116,3921516.6126836017],[-10754835.567166237,3921516.4046388641],[-10754818.074145487,3921610.5827147812],[-10754863.437146418,3921611.278664276],[-10754961.312682478,3921612.0094881132],[-10755133.863776213,3921610.79729525],[-10755132.495882383,3921698.3084072471],[-10754959.587578658,3921699.5179328695],[-10754835.443245679,3921698.8529319614],[-10754835.236561032,3921783.94355122],[-10754960.406140687,3921784.4495002255],[-10754959.646177417,3921838.3855408207],[-10755042.876104064,3921839.0070077926],[-10755044.707697291,3921785.0789689347],[-10755087.932772787,3921785.0444950089],[-10755087.288675062,3921823.9724263176],[-10755131.578871835,3921824.3084539995],[-10755130.773565482,3921884.3170643374],[-10755108.621211892,3921884.8661154285],[-10755108.618544657,3921885.223325409]]},"properties":{"OBJECTID":2,"jimuDrawId":"11339","Shape_Length":1721.0157602107638,"Sector":"B","MERGE_SRC":"Routes\\B_Quadrant_Route_polyline"}},{"type":"Feature","id":3,"geometry":{"type":"LineString","coordinates":[[-10755481.816120563,3921512.0167392418],[-10755482.921053959,3921427.1900326163],[-10755482.936350884,3921339.0258071274],[-10755400.407508006,3921340.1957245618],[-10755399.568128159,3921261.2416487709],[-10755314.186939875,3921261.6758083105],[-10755312.301401217,3921466.3544628397],[-10755326.232590662,3921466.4584852085],[-10755325.811567118,3921427.160052307],[-10755398.687738663,3921426.9897493497],[-10755399.108561996,3921514.1569875628],[-10755225.853717236,3921513.9350059852],[-10755227.133792358,3921390.3430181965],[-10755251.778614119,3921390.8842677623],[-10755252.095342577,3921431.1521263272],[-10755288.995447481,3921430.861887075],[-10755290.717370003,3921342.9489816576],[-10755227.848412534,3921342.4795473665],[-10755228.946911242,3921122.0054544806],[-10755139.665752761,3921118.4809645265],[-10755132.382656347,3921184.8713442907],[-10755131.927046916,3921341.5727924556],[-10755131.871598877,3921511.6614422277]]},"properties":{"OBJECTID":3,"jimuDrawId":"26108","Shape_Length":2090.7224834211365,"Sector":"C","MERGE_SRC":"Routes\\C_Quadrant_Route_polyline"}},{"type":"Feature","id":4,"geometry":{"type":"LineString","coordinates":[[-10755048.65561356,3921311.0624824464],[-10755049.084484851,3921341.6818905473],[-10754957.357742734,3921341.6414312571],[-10754956.753170745,3921269.1718360037],[-10754956.764599318,3921091.8281954601],[-10754968.220890388,3921091.9137380868],[-10754968.281972837,3921179.6313129663],[-10755131.510061655,3921184.072377272],[-10755132.234321684,3921342.8040001765],[-10755130.350045102,3921515.2405926436],[-10754852.28740334,3921514.3577654511],[-10754857.729159728,3921424.8911342621],[-10754958.559477687,3921426.8374512419],[-10755040.303299999,3921432.2572000027],[-10755040.779600002,3921352.3075000048]]},"properties":{"OBJECTID":4,"jimuDrawId":"4344","Shape_Length":1596.2273143156224,"Sector":"D","MERGE_SRC":"Routes\\D_Quadrant_Route_polyline"}},{"type":"Feature","id":5,"geometry":{"type":"LineString","coordinates":[[-10755048.962056801,3921311.0606539473],[-10755048.636825601,3921270.5739773437]]},"properties":{"OBJECTID":5,"jimuDrawId":"7127","Shape_Length":40.487982880533956,"Sector":"D","MERGE_SRC":"Routes\\D_Quadrant_Route_polyline"}},{"type":"Feature","id":6,"geometry":{"type":"LineString","coordinates":[[-10754414.660089076,3921864.0394456461],[-10754420.512665415,3921699.2323959991],[-10754488.688272346,3921700.0904639661],[-10754496.768268051,3921700.1869519129],[-10754499.161781915,3921730.4017837867],[-10754512.980112514,3921798.6792222634],[-10754513.421449697,3921832.4229982868],[-10754583.204335321,3921833.6373555139],[-10754584.837857392,3921738.6677888706],[-10754584.636104442,3921734.7375963032],[-10754530.56536161,3921733.8716587648],[-10754508.568166723,3921738.1776718125],[-10754503.269700067,3921706.3981421143],[-10754502.483394168,3921687.9043362886],[-10754513.932713158,3921640.1522961035],[-10754516.402321327,3921618.9096115679],[-10754516.693799822,3921610.8233166188],[-10754628.317109374,3921610.5012973696],[-10754801.800269764,3921609.8708469197],[-10754807.72696979,3921589.8865050152]]},"properties":{"OBJECTID":6,"jimuDrawId":"14240","Shape_Length":1055.3593695894999,"Sector":"E","MERGE_SRC":"Routes\\E_Quadrant_Route_polyline"}},{"type":"Feature","id":7,"geometry":{"type":"LineString","coordinates":[[-10754422.481353769,3921248.3015524596],[-10754422.467766726,3921284.5674306005],[-10754429.987692364,3921293.6257744208],[-10754497.355460543,3921296.3150477409],[-10754488.888923196,3921454.2188916802],[-10754525.132300431,3921480.2100691497],[-10754528.895747971,3921492.8841088489],[-10754526.442141417,3921505.7260645479],[-10754533.634804821,3921518.4257097319],[-10754551.854114432,3921518.347412996],[-10754615.731261581,3921517.7526855916],[-10754618.29381166,3921461.615279302],[-10754624.001316974,3921300.0470890254],[-10754628.87209017,3921164.4897435308],[-10754632.909549315,3921082.9892714694],[-10754710.258827383,3921086.5675595924],[-10754711.608699998,3921171.4048000053],[-10754712.931506692,3921341.0066520274],[-10754795.216683934,3921343.7644440979],[-10754795.687064977,3921309.4738858119],[-10754795.623531716,3921203.1617927328],[-10754793.803781565,3921102.4093726501],[-10754794.571586384,3921085.6967463493],[-10754857.14677415,3921087.2356768027],[-10754853.496590666,3921145.5083412901],[-10754850.694109088,3921205.0733631104],[-10754834.099311799,3921514.6163354814],[-10754768.790993555,3921511.685234271],[-10754732.510712303,3921513.6005811542],[-10754699.73419893,3921511.2981989756],[-10754699.924319817,3921485.8362711966]]},"properties":{"OBJECTID":7,"jimuDrawId":"5521","Shape_Length":2199.2378284184856,"Sector":"F","MERGE_SRC":"Routes\\F_Quadrant_Route_polyline"}}]}